ONEWEB-0273             
1 48991U 21060AA  24114.77456217 -.00000003  00000+0 -42036-4 0  9994
2 48991  87.9155  24.9091 0001769  86.4072 273.7261 13.16596257136376
ONEWEB-0274             
1 48992U 21060AB  24114.79989500  .00000019  00000+0  16574-4 0  9996
2 48992  87.9161  24.9139 0001370  66.7898 293.3378 13.16593961136413
ONEWEB-0275             
1 48993U 21060AC  24114.78880905  .00000015  00000+0  55239-5 0  9993
2 48993  87.9153  24.9027 0001752  87.5824 272.5508 13.16595052136344
ONEWEB-0276             
1 48994U 21060AD  24114.82206001  .00000121  00000+0  28361-3 0  9990
2 48994  87.9154  24.8921 0001727  90.1534 269.9795 13.16595205136368
ONEWEB-0277             
1 48995U 21060AE  24114.75872544  .00000063  00000+0  13111-3 0  9996
2 48995  87.9154  24.9429 0001465  96.4114 263.7184 13.16594352136349
ONEWEB-0278             
1 48996U 21060AF  24114.82522547  .00000141  00000+0  33608-3 0  9990
2 48996  87.9155  24.8883 0002202  84.8761 275.2622 13.16596627136480
ONEWEB-0279             
1 48997U 21060AG  24114.75714716  .00000066  00000+0  13992-3 0  9994
2 48997  87.9153  24.8997 0001471  92.1017 268.0282 13.16595778136408
ONEWEB-0280             
1 48998U 21060AH  24114.77138989  .00000027  00000+0  37097-4 0  9999
2 48998  87.9156  24.8977 0001989  88.4696 271.6663 13.16594459136346
